{"type": "FeatureCollection", "features": [ {"type": "Feature", "properties": {"norad_id": 28659, "name": "DIRECTV 8", "group": "intelsat", "lat": -0.00045693262028160457, "lon": 36.569710072547, "alt_km": 35790.84269065314, "timestamp": "2025-12-27T03:58:43.845317+00:00", "meta": {"OBJECT_NAME": "DIRECTV 8", "OBJECT_ID": "2005-019A", "EPOCH": "2025-12-26T09:14:16.477152", "MEAN_MOTION": 1.00271765, "ECCENTRICITY": 0.0003134, "INCLINATION": 0.0135, "RA_OF_ASC_NODE": 57.3028, "ARG_OF_PERICENTER": 228.1398, "MEAN_ANOMALY": 189.2168, "EPHEMERIS_TYPE": 0, "CLASSIFICATION_TYPE": "U", "NORAD_CAT_ID": 28659, "ELEMENT_SET_NO": 999, "REV_AT_EPOCH": 7534, "BSTAR": 0, "MEAN_MOTION_DOT": 2.3e-07, "MEAN_MOTION_DDOT": 0}, "tle": {"line1": "1 28659U 05019A   25360.38491293  .00000023  00000+0  00000+0 0  9993", "line2": "2 28659   0.0135  57.3028 0003134 228.1398 189.2168  1.00271765 75343"}}, "geometry": {"type": "Point", "coordinates": [36.569710072547, -0.00045693262028160457]}}, {"type": "Feature", "properties": {"norad_id": 28702, "name": "GALAXY 28 (G-28)", "group": "intelsat", "lat": -0.27023917250900475, "lon": 75.36724129816925, "alt_km": 35708.70262437909, "timestamp": "2025-12-27T03:58:43.845327+00:00", "meta": {"OBJECT_NAME": "GALAXY 28 (G-28)", "OBJECT_ID": "2005-022A", "EPOCH": "2025-12-26T11:40:12.062208", "MEAN_MOTION": 1.00599644, "ECCENTRICITY": 0.0003457, "INCLINATION": 2.855, "RA_OF_ASC_NODE": 81.1219, "ARG_OF_PERICENTER": 160.9204, "MEAN_ANOMALY": 307.2288, "EPHEMERIS_TYPE": 0, "CLASSIFICATION_TYPE": "U", "NORAD_CAT_ID": 28702, "ELEMENT_SET_NO": 999, "REV_AT_EPOCH": 5024, "BSTAR": 0, "MEAN_MOTION_DOT": -2.33e-06, "MEAN_MOTION_DDOT": 0}, "tle": {"line1": "1 28702U 05022A   25360.48625072 -.00000233  00000+0  00000+0 0  9995", "line2": "2 28702   2.8550  81.1219 0003457 160.9204 307.2288  1.00599644 50243"}}, "geometry": {"type": "Point", "coordinates": [75.36724129816925, -0.27023917250900475]}}, {"type": "Feature", "properties": {"norad_id": 29236, "name": "GALAXY 16 (G-16)", "group": "intelsat", "lat": -0.008485578359714207, "lon": 56.58486398595746, "alt_km": 35794.7383258249, "timestamp": "2025-12-27T03:58:43.845338+00:00", "meta": {"OBJECT_NAME": "GALAXY 16 (G-16)", "OBJECT_ID": "2006-023A", "EPOCH": "2025-12-26T14:16:23.522016", "MEAN_MOTION": 1.00271426, "ECCENTRICITY": 0.0002673, "INCLINATION": 0.044, "RA_OF_ASC_NODE": 195.1491, "ARG_OF_PERICENTER": 82.4387, "MEAN_ANOMALY": 292.8373, "EPHEMERIS_TYPE": 0, "CLASSIFICATION_TYPE": "U", "NORAD_CAT_ID": 29236, "ELEMENT_SET_NO": 999, "REV_AT_EPOCH": 7124, "BSTAR": 0, "MEAN_MOTION_DOT": -1.05e-06, "MEAN_MOTION_DDOT": 0}, "tle": {"line1": "1 29236U 06023A   25360.59471669 -.00000105  00000+0  00000+0 0  9991", "line2": "2 29236   0.0440 195.1491 0002673  82.4387 292.8373  1.00271426 71243"}}, "geometry": {"type": "Point", "coordinates": [56.58486398595746, -0.008485578359714207]}}, {"type": "Feature", "properties": {"norad_id": 29494, "name": "DIRECTV 9S", "group": "intelsat", "lat": -0.9347696812302939, "lon": 54.41324781236978, "alt_km": 35795.37386372156, "timestamp": "2025-12-27T03:58:43.845348+00:00", "meta": {"OBJECT_NAME": "DIRECTV 9S", "OBJECT_ID": "2006-043A", "EPOCH": "2025-12-26T11:22:08.461920", "MEAN_MOTION": 1.00271472, "ECCENTRICITY": 0.000309, "INCLINATION": 1.9736, "RA_OF_ASC_NODE": 83.0647, "ARG_OF_PERICENTER": 197.4585, "MEAN_ANOMALY": 244.0274, "EPHEMERIS_TYPE": 0, "CLASSIFICATION_TYPE": "U", "NORAD_CAT_ID": 29494, "ELEMENT_SET_NO": 999, "REV_AT_EPOCH": 4965, "BSTAR": 0, "MEAN_MOTION_DOT": -9.2e-07, "MEAN_MOTION_DDOT": 0}, "tle": {"line1": "1 29494U 06043A   25360.47370905 -.00000092  00000+0  00000+0 0  9992", "line2": "2 29494   1.9736  83.0647 0003090 197.4585 244.0274  1.00271472 49656"}}, "geometry": {"type": "Point", "coordinates": [54.41324781236978, -0.9347696812302939]}}, {"type": "Feature", "properties": {"norad_id": 31307, "name": "GALAXY 17 (G-17)", "group": "intelsat", "lat": -0.4906324015576809, "lon": 70.60732242976937, "alt_km": 35809.91960171107, "timestamp": "2025-12-27T03:58:43.845359+00:00", "meta": {"OBJECT_NAME": "GALAXY 17 (G-17)", "OBJECT_ID": "2007-016B", "EPOCH": "2025-12-26T13:30:50.905152", "MEAN_MOTION": 1.00271679, "ECCENTRICITY": 0.0005635, "INCLINATION": 2.5327, "RA_OF_ASC_NODE": 82.127, "ARG_OF_PERICENTER": 174.459, "MEAN_ANOMALY": 316.4453, "EPHEMERIS_TYPE": 0, "CLASSIFICATION_TYPE": "U", "NORAD_CAT_ID": 31307, "ELEMENT_SET_NO": 999, "REV_AT_EPOCH": 6807, "BSTAR": 0, "MEAN_MOTION_DOT": -1.85e-06, "MEAN_MOTION_DDOT": 0}, "tle": {"line1": "1 31307U 07016B   25360.56308918 -.00000185  00000+0  00000+0 0  9997", "line2": "2 31307   2.5327  82.1270 0005635 174.4590 316.4453  1.00271679 68074"}}, "geometry": {"type": "Point", "coordinates": [70.60732242976937, -0.4906324015576809]}}, {"type": "Feature", "properties": {"norad_id": 31862, "name": "DIRECTV 10", "group": "intelsat", "lat": 0.0027632158354840273, "lon": 52.848551740177776, "alt_km": 35786.819558709576, "timestamp": "2025-12-27T03:58:43.845370+00:00", "meta": {"OBJECT_NAME": "DIRECTV 10", "OBJECT_ID": "2007-032A", "EPOCH": "2025-12-25T09:09:15.831072", "MEAN_MOTION": 1.00280696, "ECCENTRICITY": 7.66e-05, "INCLINATION": 0.0126, "RA_OF_ASC_NODE": 126.575, "ARG_OF_PERICENTER": 111.4706, "MEAN_ANOMALY": 250.6263, "EPHEMERIS_TYPE": 0, "CLASSIFICATION_TYPE": "U", "NORAD_CAT_ID": 31862, "ELEMENT_SET_NO": 999, "REV_AT_EPOCH": 4385, "BSTAR": 0, "MEAN_MOTION_DOT": -8.3e-07, "MEAN_MOTION_DDOT": 0}, "tle": {"line1": "1 31862U 07032A   25359.38143323 -.00000083  00000+0  00000+0 0  9993", "line2": "2 31862   0.0126 126.5750 0000766 111.4706 250.6263  1.00280696 43852"}}, "geometry": {"type": "Point", "coordinates": [52.848551740177776, 0.0027632158354840273]}}, {"type": "Feature", "properties": {"norad_id": 32253, "name": "INTELSAT 11 (IS-11)", "group": "intelsat", "lat": -2.633077970585703, "lon": -42.064577319028544, "alt_km": 36116.01409352718, "timestamp": "2025-12-27T03:58:43.845380+00:00", "meta": {"OBJECT_NAME": "INTELSAT 11 (IS-11)", "OBJECT_ID": "2007-044B", "EPOCH": "2025-12-26T11:04:38.606880", "MEAN_MOTION": 0.99053021, "ECCENTRICITY": 0.0008649, "INCLINATION": 3.1139, "RA_OF_ASC_NODE": 80.8223, "ARG_OF_PERICENTER": 171.9228, "MEAN_ANOMALY": 174.017, "EPHEMERIS_TYPE": 0, "CLASSIFICATION_TYPE": "U", "NORAD_CAT_ID": 32253, "ELEMENT_SET_NO": 999, "REV_AT_EPOCH": 6673, "BSTAR": 0, "MEAN_MOTION_DOT": -2.16e-06, "MEAN_MOTION_DDOT": 0}, "tle": {"line1": "1 32253U 07044B   25360.46155795 -.00000216  00000+0  00000+0 0  9996", "line2": "2 32253   3.1139  80.8223 0008649 171.9228 174.0170  0.99053021 66735"}}, "geometry": {"type": "Point", "coordinates": [-42.064577319028544, -2.633077970585703]}}, {"type": "Feature", "properties": {"norad_id": 32388, "name": "HORIZONS-2", "group": "intelsat", "lat": -0.021246041351832987, "lon": 81.77790837489059, "alt_km": 35806.470056421786, "timestamp": "2025-12-27T03:58:43.845390+00:00", "meta": {"OBJECT_NAME": "HORIZONS-2", "OBJECT_ID": "2007-063B", "EPOCH": "2025-12-26T11:37:39.127296", "MEAN_MOTION": 1.00268933, "ECCENTRICITY": 0.0004863, "INCLINATION": 2.1553, "RA_OF_ASC_NODE": 82.8098, "ARG_OF_PERICENTER": 197.5129, "MEAN_ANOMALY": 275.5091, "EPHEMERIS_TYPE": 0, "CLASSIFICATION_TYPE": "U", "NORAD_CAT_ID": 32388, "ELEMENT_SET_NO": 999, "REV_AT_EPOCH": 6608, "BSTAR": 0, "MEAN_MOTION_DOT": -2.32e-06, "MEAN_MOTION_DDOT": 0}, "tle": {"line1": "1 32388U 07063B   25360.48448064 -.00000232  00000+0  00000+0 0  9990", "line2": "2 32388   2.1553  82.8098 0004863 197.5129 275.5091  1.00268933 66083"}}, "geometry": {"type": "Point", "coordinates": [81.77790837489059, -0.021246041351832987]}}, {"type": "Feature", "properties": {"norad_id": 32729, "name": "DIRECTV 11", "group": "intelsat", "lat": -0.005557309620766866, "lon": 56.28043255200978, "alt_km": 35793.30640589231, "timestamp": "2025-12-27T03:58:43.845401+00:00", "meta": {"OBJECT_NAME": "DIRECTV 11", "OBJECT_ID": "2008-013A", "EPOCH": "2025-12-24T22:53:59.758368", "MEAN_MOTION": 1.00260442, "ECCENTRICITY": 0.0001047, "INCLINATION": 0.0475, "RA_OF_ASC_NODE": 199.7105, "ARG_OF_PERICENTER": 11.4593, "MEAN_ANOMALY": 126.8496, "EPHEMERIS_TYPE": 0, "CLASSIFICATION_TYPE": "U", "NORAD_CAT_ID": 32729, "ELEMENT_SET_NO": 999, "REV_AT_EPOCH": 4384, "BSTAR": 0, "MEAN_MOTION_DOT": -1.03e-06, "MEAN_MOTION_DDOT": 0}, "tle": {"line1": "1 32729U 08013A   25358.95416387 -.00000103  00000+0  00000+0 0  9994", "line2": "2 32729   0.0475 199.7105 0001047  11.4593 126.8496  1.00260442 43842"}}, "geometry": {"type": "Point", "coordinates": [56.28043255200978, -0.005557309620766866]}}, {"type": "Feature", "properties": {"norad_id": 32951, "name": "GALAXY 18 (G-18)", "group": "intelsat", "lat": 0.017352067645076255, "lon": 32.60184942763703, "alt_km": 35790.744037219556, "timestamp": "2025-12-27T03:58:43.845412+00:00", "meta": {"OBJECT_NAME": "GALAXY 18 (G-18)", "OBJECT_ID": "2008-024A", "EPOCH": "2025-12-26T15:52:21.832320", "MEAN_MOTION": 1.00271115, "ECCENTRICITY": 0.0003324, "INCLINATION": 0.0187, "RA_OF_ASC_NODE": 3.7589, "ARG_OF_PERICENTER": 280.2068, "MEAN_ANOMALY": 286.5194, "EPHEMERIS_TYPE": 0, "CLASSIFICATION_TYPE": "U", "NORAD_CAT_ID": 32951, "ELEMENT_SET_NO": 999, "REV_AT_EPOCH": 4412, "BSTAR": 0, "MEAN_MOTION_DOT": 0, "MEAN_MOTION_DDOT": 0}, "tle": {"line1": "1 32951U 08024A   25360.66136380  .00000000  00000+0  00000+0 0  9991", "line2": "2 32951   0.0187   3.7589 0003324 280.2068 286.5194  1.00271115 44122"}}, "geometry": {"type": "Point", "coordinates": [32.60184942763703, 0.017352067645076255]}}]}